[{"OBJECT_NAME":"PAKSAT-MM1","OBJECT_ID":"2024-104A","EPOCH":"2026-03-28T04:41:55.904352","MEAN_MOTION":1.00271221,"ECCENTRICITY":0.0002533,"INCLINATION":0.0108,"RA_OF_ASC_NODE":195.5719,"ARG_OF_PERICENTER":165.0772,"MEAN_ANOMALY":293.6542,"EPHEMERIS_TYPE":0,"CLASSIFICATION_TYPE":"U","NORAD_CAT_ID":59915,"ELEMENT_SET_NO":999,"REV_AT_EPOCH":671,"BSTAR":0,"MEAN_MOTION_DOT":1.34e-6,"MEAN_MOTION_DDOT":0},{"OBJECT_NAME":"ASTRA 1P (SES-24)","OBJECT_ID":"2024-115A","EPOCH":"2026-03-28T21:43:18.187104","MEAN_MOTION":1.0027229,"ECCENTRICITY":0.0003763,"INCLINATION":0.0633,"RA_OF_ASC_NODE":15.8343,"ARG_OF_PERICENTER":303.4629,"MEAN_ANOMALY":212.0192,"EPHEMERIS_TYPE":0,"CLASSIFICATION_TYPE":"U","NORAD_CAT_ID":60086,"ELEMENT_SET_NO":999,"REV_AT_EPOCH":639,"BSTAR":0,"MEAN_MOTION_DOT":1.0e-6,"MEAN_MOTION_DDOT":0},{"OBJECT_NAME":"GOES 19","OBJECT_ID":"2024-119A","EPOCH":"2026-03-28T21:16:20.773056","MEAN_MOTION":1.00269963,"ECCENTRICITY":8.532e-5,"INCLINATION":0.0354,"RA_OF_ASC_NODE":13.3266,"ARG_OF_PERICENTER":28.405,"MEAN_ANOMALY":28.4295,"EPHEMERIS_TYPE":0,"CLASSIFICATION_TYPE":"U","NORAD_CAT_ID":60133,"ELEMENT_SET_NO":999,"REV_AT_EPOCH":615,"BSTAR":0,"MEAN_MOTION_DOT":-2.68e-6,"MEAN_MOTION_DDOT":0},{"OBJECT_NAME":"ZHONGXING-3A","OBJECT_ID":"2024-122A","EPOCH":"2026-03-24T12:00:37.859616","MEAN_MOTION":1.0026918,"ECCENTRICITY":0.0002305,"INCLINATION":0.0442,"RA_OF_ASC_NODE":2.7357,"ARG_OF_PERICENTER":82.4897,"MEAN_ANOMALY":18.461,"EPHEMERIS_TYPE":0,"CLASSIFICATION_TYPE":"U","NORAD_CAT_ID":60179,"ELEMENT_SET_NO":999,"REV_AT_EPOCH":646,"BSTAR":0,"MEAN_MOTION_DOT":-3.21e-6,"MEAN_MOTION_DDOT":0},{"OBJECT_NAME":"TURKSAT 6A","OBJECT_ID":"2024-127A","EPOCH":"2026-03-28T20:07:10.177536","MEAN_MOTION":1.00272636,"ECCENTRICITY":0.00015004,"INCLINATION":0.0299,"RA_OF_ASC_NODE":199.4446,"ARG_OF_PERICENTER":129.2241,"MEAN_ANOMALY":201.3596,"EPHEMERIS_TYPE":0,"CLASSIFICATION_TYPE":"U","NORAD_CAT_ID":60233,"ELEMENT_SET_NO":999,"REV_AT_EPOCH":621,"BSTAR":0,"MEAN_MOTION_DOT":1.27e-6,"MEAN_MOTION_DDOT":0},{"OBJECT_NAME":"HULIANWAN GAOGUI-02 (HG-02)","OBJECT_ID":"2024-135A","EPOCH":"2026-03-25T03:39:11.922912","MEAN_MOTION":1.00265874,"ECCENTRICITY":0.00083163,"INCLINATION":0.016,"RA_OF_ASC_NODE":52.416,"ARG_OF_PERICENTER":296.025,"MEAN_ANOMALY":42.0773,"EPHEMERIS_TYPE":0,"CLASSIFICATION_TYPE":"U","NORAD_CAT_ID":60327,"ELEMENT_SET_NO":999,"REV_AT_EPOCH":665,"BSTAR":0,"MEAN_MOTION_DOT":0,"MEAN_MOTION_DDOT":0},{"OBJECT_NAME":"ZHONGXING-4A","OBJECT_ID":"2024-151A","EPOCH":"2026-03-28T21:42:38.640096","MEAN_MOTION":1.0026924,"ECCENTRICITY":0.00012709,"INCLINATION":1.5216,"RA_OF_ASC_NODE":271.7193,"ARG_OF_PERICENTER":93.2347,"MEAN_ANOMALY":265.1952,"EPHEMERIS_TYPE":0,"CLASSIFICATION_TYPE":"U","NORAD_CAT_ID":60606,"ELEMENT_SET_NO":999,"REV_AT_EPOCH":594,"BSTAR":0,"MEAN_MOTION_DOT":-3.85e-6,"MEAN_MOTION_DDOT":0},{"OBJECT_NAME":"HULIANWAN GAOGUI-03 (HG-03)","OBJECT_ID":"2024-181A","EPOCH":"2026-03-27T00:46:08.810688","MEAN_MOTION":1.00268557,"ECCENTRICITY":5.122e-5,"INCLINATION":0.0142,"RA_OF_ASC_NODE":61.6092,"ARG_OF_PERICENTER":80.8292,"MEAN_ANOMALY":336.4433,"EPHEMERIS_TYPE":0,"CLASSIFICATION_TYPE":"U","NORAD_CAT_ID":61503,"ELEMENT_SET_NO":999,"REV_AT_EPOCH":600,"BSTAR":0,"MEAN_MOTION_DOT":0,"MEAN_MOTION_DDOT":0},{"OBJECT_NAME":"DSN-3 (KIRAMEKI-3)","OBJECT_ID":"2024-198A","EPOCH":"2026-03-28T08:37:25.820832","MEAN_MOTION":1.00270797,"ECCENTRICITY":0.00012862,"INCLINATION":0.0244,"RA_OF_ASC_NODE":103.821,"ARG_OF_PERICENTER":225.4455,"MEAN_ANOMALY":129.9097,"EPHEMERIS_TYPE":0,"CLASSIFICATION_TYPE":"U","NORAD_CAT_ID":61733,"ELEMENT_SET_NO":999,"REV_AT_EPOCH":511,"BSTAR":0,"MEAN_MOTION_DOT":-2.7e-6,"MEAN_MOTION_DDOT":0},{"OBJECT_NAME":"KOREASAT 6A","OBJECT_ID":"2024-206A","EPOCH":"2026-03-28T21:42:38.640096","MEAN_MOTION":1.00272334,"ECCENTRICITY":0.00010125,"INCLINATION":0.0107,"RA_OF_ASC_NODE":167.1089,"ARG_OF_PERICENTER":181.0246,"MEAN_ANOMALY":279.8453,"EPHEMERIS_TYPE":0,"CLASSIFICATION_TYPE":"U","NORAD_CAT_ID":61910,"ELEMENT_SET_NO":999,"REV_AT_EPOCH":503,"BSTAR":0,"MEAN_MOTION_DOT":-3.81e-6,"MEAN_MOTION_DDOT":0},{"OBJECT_NAME":"OPTUS-X (ADS-01)","OBJECT_ID":"2024-212A","EPOCH":"2026-03-28T20:39:46.779840","MEAN_MOTION":1.00271343,"ECCENTRICITY":0.00010181,"INCLINATION":0.0276,"RA_OF_ASC_NODE":262.1127,"ARG_OF_PERICENTER":119.78,"MEAN_ANOMALY":270.7104,"EPHEMERIS_TYPE":0,"CLASSIFICATION_TYPE":"U","NORAD_CAT_ID":62006,"ELEMENT_SET_NO":999,"REV_AT_EPOCH":495,"BSTAR":0,"MEAN_MOTION_DOT":-1.63e-6,"MEAN_MOTION_DDOT":0},{"OBJECT_NAME":"GSAT-N2 (GSAT-20)","OBJECT_ID":"2024-214A","EPOCH":"2026-03-28T21:57:16.846848","MEAN_MOTION":1.00270649,"ECCENTRICITY":4.709e-5,"INCLINATION":0.0186,"RA_OF_ASC_NODE":234.6859,"ARG_OF_PERICENTER":298.6346,"MEAN_ANOMALY":50.2636,"EPHEMERIS_TYPE":0,"CLASSIFICATION_TYPE":"U","NORAD_CAT_ID":62028,"ELEMENT_SET_NO":999,"REV_AT_EPOCH":509,"BSTAR":0,"MEAN_MOTION_DOT":-3.9e-7,"MEAN_MOTION_DDOT":0},{"OBJECT_NAME":"SXM-9","OBJECT_ID":"2024-234A","EPOCH":"2026-03-28T21:13:36.035904","MEAN_MOTION":1.00270564,"ECCENTRICITY":0.00045601,"INCLINATION":0.0151,"RA_OF_ASC_NODE":205.7975,"ARG_OF_PERICENTER":106.0308,"MEAN_ANOMALY":107.7128,"EPHEMERIS_TYPE":0,"CLASSIFICATION_TYPE":"U","NORAD_CAT_ID":62259,"ELEMENT_SET_NO":999,"REV_AT_EPOCH":476,"BSTAR":0,"MEAN_MOTION_DOT":0,"MEAN_MOTION_DDOT":0},{"OBJECT_NAME":"TJS-12","OBJECT_ID":"2024-246A","EPOCH":"2026-03-28T22:19:35.084352","MEAN_MOTION":1.00268134,"ECCENTRICITY":0.00021397,"INCLINATION":0.8532,"RA_OF_ASC_NODE":293.074,"ARG_OF_PERICENTER":33.526,"MEAN_ANOMALY":341.0802,"EPHEMERIS_TYPE":0,"CLASSIFICATION_TYPE":"U","NORAD_CAT_ID":62374,"ELEMENT_SET_NO":999,"REV_AT_EPOCH":476,"BSTAR":0,"MEAN_MOTION_DOT":-2.53e-6,"MEAN_MOTION_DDOT":0},{"OBJECT_NAME":"NUVIEW ALPHA","OBJECT_ID":"2024-252B","EPOCH":"2026-03-28T12:40:47.420832","MEAN_MOTION":1.00272177,"ECCENTRICITY":0.0001908,"INCLINATION":0.0637,"RA_OF_ASC_NODE":32.8668,"ARG_OF_PERICENTER":344.4136,"MEAN_ANOMALY":275.7484,"EPHEMERIS_TYPE":0,"CLASSIFICATION_TYPE":"U","NORAD_CAT_ID":62455,"ELEMENT_SET_NO":999,"REV_AT_EPOCH":301,"BSTAR":0,"MEAN_MOTION_DOT":-2.35e-6,"MEAN_MOTION_DDOT":0},{"OBJECT_NAME":"AGILA","OBJECT_ID":"2024-252C","EPOCH":"2026-03-28T20:38:31.898688","MEAN_MOTION":1.00271528,"ECCENTRICITY":0.00014596,"INCLINATION":0.0332,"RA_OF_ASC_NODE":134.4021,"ARG_OF_PERICENTER":240.1514,"MEAN_ANOMALY":273.4906,"EPHEMERIS_TYPE":0,"CLASSIFICATION_TYPE":"U","NORAD_CAT_ID":62456,"ELEMENT_SET_NO":999,"REV_AT_EPOCH":435,"BSTAR":0,"MEAN_MOTION_DOT":-2.01e-6,"MEAN_MOTION_DDOT":0},{"OBJECT_NAME":"NUVIEW BRAVO","OBJECT_ID":"2024-252D","EPOCH":"2026-03-28T12:40:47.420832","MEAN_MOTION":1.00271407,"ECCENTRICITY":8.91e-5,"INCLINATION":0.0606,"RA_OF_ASC_NODE":174.2072,"ARG_OF_PERICENTER":258.052,"MEAN_ANOMALY":220.7479,"EPHEMERIS_TYPE":0,"CLASSIFICATION_TYPE":"U","NORAD_CAT_ID":62457,"ELEMENT_SET_NO":999,"REV_AT_EPOCH":298,"BSTAR":0,"MEAN_MOTION_DOT":-2.34e-6,"MEAN_MOTION_DDOT":0}]
