PAKSAT-MM1              
1 59915U 24104A   26087.19578593  .00000134  00000+0  00000+0 0  9996
2 59915   0.0108 195.5719 0002533 165.0772 293.6542  1.00271221  6719
ASTRA 1P (SES-24)       
1 60086U 24115A   26087.90507161  .00000100  00000+0  00000+0 0  9994
2 60086   0.0633  15.8343 0003763 303.4629 212.0192  1.00272290  6392
GOES 19                 
1 60133U 24119A   26087.88635154 -.00000268  00000+0  00000+0 0  9998
2 60133   0.0354  13.3266 0000853  28.4050  28.4295  1.00269963  6151
ZHONGXING-3A            
1 60179U 24122A   26083.50043819 -.00000321  00000+0  00000+0 0  9998
2 60179   0.0442   2.7357 0002305  82.4897  18.4610  1.00269180  6460
TURKSAT 6A              
1 60233U 24127A   26087.83831224  .00000127  00000+0  00000+0 0  9992
2 60233   0.0299 199.4446 0001500 129.2241 201.3596  1.00272636  6212
HULIANWAN GAOGUI-02 (H*)
1 60327U 24135A   26084.15222133  .00000000  00000+0  00000+0 0  9990
2 60327   0.0160  52.4160 0008316 296.0250  42.0773  1.00265874  6650
ZHONGXING-4A            
1 60606U 24151A   26087.90461389 -.00000385  00000+0  00000+0 0  9999
2 60606   1.5216 271.7193 0001270  93.2347 265.1952  1.00269240  5945
HULIANWAN GAOGUI-03 (H*)
1 61503U 24181A   26086.03204642  .00000000  00000+0  00000+0 0  9992
2 61503   0.0142  61.6092 0000512  80.8292 336.4433  1.00268557  6001
DSN-3 (KIRAMEKI-3)      
1 61733U 24198A   26087.35932663 -.00000270  00000+0  00000+0 0  9992
2 61733   0.0244 103.8210 0001286 225.4455 129.9097  1.00270797  5118
KOREASAT 6A             
1 61910U 24206A   26087.90461389 -.00000381  00000+0  00000+0 0  9995
2 61910   0.0107 167.1089 0001012 181.0246 279.8453  1.00272334  5033
OPTUS-X (ADS-01)        
1 62006U 24212A   26087.86095810 -.00000163  00000+0  00000+0 0  9994
2 62006   0.0276 262.1127 0001018 119.7800 270.7104  1.00271343  4958
GSAT-N2 (GSAT-20)       
1 62028U 24214A   26087.91477832 -.00000039  00000+0  00000+0 0  9996
2 62028   0.0186 234.6859 0000470 298.6346  50.2636  1.00270649  5096
SXM-9                   
1 62259U 24234A   26087.88444486  .00000000  00000+0  00000+0 0  9996
2 62259   0.0151 205.7975 0004560 106.0308 107.7128  1.00270564  4769
TJS-12                  
1 62374U 24246A   26087.93026718 -.00000253  00000+0  00000+0 0  9998
2 62374   0.8532 293.0740 0002139  33.5260 341.0802  1.00268134  4761
NUVIEW ALPHA            
1 62455U 24252B   26087.52832663 -.00000235  00000+0  00000+0 0  9994
2 62455   0.0637  32.8668 0001908 344.4136 275.7484  1.00272177  3014
AGILA                   
1 62456U 24252C   26087.86009142 -.00000201  00000+0  00000+0 0  9993
2 62456   0.0332 134.4021 0001459 240.1514 273.4906  1.00271528  4353
NUVIEW BRAVO            
1 62457U 24252D   26087.52832663 -.00000234  00000+0  00000+0 0  9995
2 62457   0.0606 174.2072 0000891 258.0520 220.7479  1.00271407  2983
